STARLINK-1441           
1 45658U 20035B   22275.78894236 -.00000347  00000+0 -43993-5 0  9991
2 45658  53.0549 295.5923 0001463  60.2881 299.8253 15.06394178129745
STARLINK-1442           
1 45659U 20035C   22276.05706615  .00001218  00000+0  10062-3 0  9991
2 45659  53.0529 294.4053 0001327 100.0932 260.0206 15.06403748129376
STARLINK-1443           
1 45660U 20035D   22276.19807783  .00001008  00000+0  86516-4 0  9991
2 45660  53.0547 293.7667 0001486  60.7501 299.3637 15.06403993129398
STARLINK-1444           
1 45661U 20035E   22276.21650223  .00000827  00000+0  74382-4 0  9996
2 45661  53.0541 293.6909 0001692  58.8719 301.2436 15.06411258129381
STARLINK-1445           
1 45662U 20035F   22276.09855974  .00002417  00000+0  18109-3 0  9994
2 45662  53.0559 294.2101 0002040  52.5925 307.5249 15.06403463129425
STARLINK-1446           
1 45663U 20035G   22276.16860279  .00002389  00000+0  17917-3 0  9991
2 45663  53.0536 293.8832 0001843  50.7501 309.3651 15.06406791129386
STARLINK-1448           
1 45665U 20035J   22275.53831010  .00004328  00000+0  30918-3 0  9995
2 45665  53.0544 296.7313 0001656  63.5141 296.6018 15.06408912129693
STARLINK-1449           
1 45666U 20035K   22275.47563803 -.00000477  00000+0 -13115-4 0  9995
2 45666  53.0530 296.9876 0001530  67.2966 292.8185 15.06397537129684
STARLINK-1450           
1 45667U 20035L   22276.20818870  .00000892  00000+0  78749-4 0  9998
2 45667  53.0572 293.7440 0001758  55.9195 304.1961 15.06404091129440
STARLINK-1451           
1 45668U 20035M   22275.77694813 -.00001302  00000+0 -68518-4 0  9991
2 45668  53.0549 295.6622 0001738  52.5011 307.6135 15.06398320129332
STARLINK-1452           
1 45669U 20035N   22276.09119479 -.00000807  00000+0 -35290-4 0  9998
2 45669  53.0544 294.2383 0001676  60.4580 299.6575 15.06398445129366
STARLINK-1453           
1 45670U 20035P   22276.21559178  .00001319  00000+0  10744-3 0  9991
2 45670  53.0543 263.6917 0001669  64.1887 295.9274 15.06400419129813
STARLINK-1454           
1 45671U 20035Q   22276.09488591 -.00001868  00000+0 -10655-3 0  9990
2 45671  53.0548 294.2208 0001710  58.2630 301.8525 15.06398581129372
STARLINK-1455           
1 45672U 20035R   22276.23770330  .00001085  00000+0  91716-4 0  9999
2 45672  53.0545 263.5923 0001750  52.0548 308.0599 15.06399480129815
STARLINK-1456           
1 45673U 20035S   22276.10962360  .00000058  00000+0  22768-4 0  9992
2 45673  53.0561 294.1581 0001577  59.4966 300.6179 15.06396237129387
STARLINK-1457           
1 45674U 20035T   22276.18333822  .00000004  00000+0  19134-4 0  9990
2 45674  53.0551 293.8274 0001445  65.5287 294.5853 15.06401458129405
STARLINK-1458           
1 45675U 20035U   22275.77419777  .00000627  00000+0  61014-4 0  9994
2 45675  53.0546 295.6731 0001766  62.3808 297.7360 15.06399568129707
STARLINK-1460           
1 45676U 20035V   22276.20913174 -.00002632  00000+0 -15785-3 0  9997
2 45676  53.0538 293.7228 0001736  62.1174 297.9991 15.06396298129394
STARLINK-1392           
1 45677U 20035W   22276.22019434 -.00000153  00000+0  86073-5 0  9991
2 45677  53.0558 293.6568 0001607  62.7253 297.3899 15.06405753129392
STARLINK-1393           
1 45678U 20035X   22276.21374612  .00001233  00000+0  10162-3 0  9996
2 45678  53.0556 283.6981 0001587  55.9817 304.1322 15.06406481129539
STARLINK-1394           
1 45679U 20035Y   22276.21742218  .00000485  00000+0  51437-4 0  9997
2 45679  53.0532 283.6775 0001618  66.4828 293.6331 15.06416342129549
STARLINK-1395           
1 45680U 20035Z   22276.02577104  .00005197  00000+0  36756-3 0  9999
2 45680  53.0539 284.5471 0001551  71.0301 289.0856 15.06394357129503
STARLINK-1396           
1 45681U 20035AA  22276.15477102  .00002689  00000+0  19931-3 0  9990
2 45681  53.0542 283.9621 0001580  65.7636 294.3518 15.06407273129529
STARLINK-1397           
1 45682U 20035AB  22275.76406750 -.00000376  00000+0 -63473-5 0  9993
2 45682  53.0550 285.7102 0001393  77.4058 282.7087 15.06388620129866
STARLINK-1399           
1 45683U 20035AC  22275.81198007  .00004453  00000+0  31762-3 0  9995
2 45683  53.0528 285.4842 0001667  72.6231 287.4941 15.06400208129884
STARLINK-1401           
1 45684U 20035AD  22275.72351925 -.00001122  00000+0 -56447-4 0  9996
2 45684  53.0554 285.8949 0001736  54.0201 306.0948 15.06400539129875
STARLINK-1402           
1 45685U 20035AE  22275.45444394 -.00001505  00000+0 -82162-4 0  9998
2 45685  53.0536 287.1083 0001686  61.8547 298.2612 15.06394783129832
STARLINK-1404           
1 45686U 20035AF  22276.17688781  .00000763  00000+0  70132-4 0  9996
2 45686  53.0551 283.8517 0001471  83.5638 276.5518 15.06399448129533
STARLINK-1408           
1 45688U 20035AH  22275.34214161  .00011229  00000+0  73724-3 0  9991
2 45688  53.0554 287.2827 0001061  41.4863 318.6207 15.08089365129818
STARLINK-1413           
1 45689U 20035AJ  22276.19531634  .00001031  00000+0  88033-4 0  9993
2 45689  53.0540 283.7790 0001327  80.4550 279.6589 15.06415162129539
STARLINK-1414           
1 45690U 20035AK  22275.76731836 -.00001876  00000+0 -10963-3 0  9998
2 45690  53.0014 285.7091 0001473  74.8102 285.3049 15.05582125129825
STARLINK-1415           
1 45691U 20035AL  22276.18056847  .00002011  00000+0  15380-3 0  9996
2 45691  53.0542 283.8347 0001616  60.4409 299.6741 15.06410683129934
STARLINK-1416           
1 45692U 20035AM  22276.17319445  .00000932  00000+0  81449-4 0  9992
2 45692  53.0545 283.8652 0001586  59.1032 301.0112 15.06405911129534
STARLINK-1417           
1 45693U 20035AN  22276.19162924  .00000414  00000+0  46672-4 0  9997
2 45693  53.0551 283.8015 0001482  61.3373 298.7765 15.06409352129532
STARLINK-1419           
1 45694U 20035AP  22276.16487018  .00026814  00000+0  17323-2 0  9990
2 45694  53.0532 283.5387 0001875  49.6619 310.4535 15.08067493129545
STARLINK-1420           
1 45695U 20035AQ  22276.19252859 -.00000446  00000+0 -11031-4 0  9994
2 45695  53.0548 263.7763 0001662  57.5637 302.5513 15.06400249129819
STARLINK-1422           
1 45696U 20035AR  22276.20268210  .00003964  00000+0  28475-3 0  9990
2 45696  53.0539 283.7326 0001633  60.2612 299.8539 15.06412258129537
STARLINK-1351           
1 45697U 20035AS  22276.17872559  .00001043  00000+0  88897-4 0  9995
2 45697  53.0537 263.8607 0001523  72.9815 287.1341 15.06408622129812
STARLINK-1370           
1 45698U 20035AT  22276.23306640  .00001512  00000+0  12032-3 0  9994
2 45698  53.0549 263.5989 0001793  65.2628 294.8548 15.06415358129832
STARLINK-1398           
1 45699U 20035AU  22276.22295377  .00005117  00000+0  36198-3 0  9992
2 45699  53.0533 263.6596 0001554  87.8325 272.2842 15.06416330129861
STARLINK-1400           
1 45700U 20035AV  22276.21927359  .00002889  00000+0  21272-3 0  9996
2 45700  53.0544 263.6615 0001369  83.6354 276.4790 15.06409940129810
STARLINK-1403           
1 45701U 20035AW  22275.71799003 -.00001738  00000+0 -97814-4 0  9994
2 45701  53.0555 265.9275 0001641  60.7756 299.3397 15.06395169130147
STARLINK-1405           
1 45702U 20035AX  22275.69956710 -.00000137  00000+0  97156-5 0  9993
2 45702  53.0537 265.9991 0001754  86.1474 273.9716 15.06398583130143
STARLINK-1407           
1 45703U 20035AY  22276.22663931  .00002706  00000+0  20043-3 0  9996
2 45703  53.0526 263.6448 0001851  77.9907 282.1289 15.06415052129811
STARLINK-1409           
1 45704U 20035AZ  22275.78799778  .00002107  00000+0  16029-3 0  9990
2 45704  53.0527 295.6152 0001666  64.2538 295.8622 15.06403515129748
STARLINK-1410           
1 45705U 20035BA  22276.21282411  .00000545  00000+0  55508-4 0  9991
2 45705  53.0543 293.6848 0001460  61.7699 298.3437 15.06395614129392
STARLINK-1411           
1 45706U 20035BB  22276.20453305  .00000696  00000+0  65593-4 0  9995
2 45706  53.0545 263.7251 0001582  77.5580 282.5586 15.06401132129810
STARLINK-1412           
1 45707U 20035BC  22276.20083883  .00002998  00000+0  22005-3 0  9993
2 45707  53.0542 263.7602 0001585  69.1737 290.9422 15.06408965129815
STARLINK-1418           
1 45708U 20035BD  22275.71062079 -.00001364  00000+0 -72701-4 0  9990
2 45708  53.0546 265.9444 0001614  66.4326 293.6833 15.06397946130156
STARLINK-1421           
1 45709U 20035BE  22275.68112968  .00000599  00000+0  59091-4 0  9994
2 45709  53.0536 266.0940 0001477  69.5102 290.6046 15.06405782130108
STARLINK-1423           
1 45710U 20035BF  22275.67744314  .00000673  00000+0  64082-4 0  9990
2 45710  53.0533 266.1129 0001589  65.1231 294.9923 15.06402900130140
STARLINK-1433           
1 45711U 20035BG  22275.39362978 -.00001058  00000+0 -52140-4 0  9994
2 45711  53.0558 267.3714 0001551  72.8929 287.2230 15.06402580130093
STARLINK-1434           
1 45712U 20035BH  22276.18609726  .00005847  00000+0  41092-3 0  9999
2 45712  53.0523 263.8164 0001520  64.7320 295.3826 15.06418156129812
STARLINK-1436 (VISORSAT)
1 45713U 20035BJ  22275.74194631  .00000877  00000+0  77738-4 0  9990
2 45713  53.0537 285.7946 0001707  66.9111 293.2058 15.06404091129860
STARLINK-1437           
1 45714U 20035BK  22276.19715730  .00009218  00000+0  63669-3 0  9995
2 45714  53.0538 263.7673 0001527  66.2981 293.8168 15.06412403129812
